[{"OBJECT_NAME":"STARLINK-30415","OBJECT_ID":"2023-138P","EPOCH":"2025-07-30T21:24:07.885152","MEAN_MOTION":15.02537133,"ECCENTRICITY":0.0001307,"INCLINATION":43.0048,"RA_OF_ASC_NODE":1.1096,"ARG_OF_PERICENTER":253.7885,"MEAN_ANOMALY":106.2813,"EPHEMERIS_TYPE":0,"CLASSIFICATION_TYPE":"U","NORAD_CAT_ID":57821,"ELEMENT_SET_NO":999,"REV_AT_EPOCH":10535,"BSTAR":3.6129e-5,"MEAN_MOTION_DOT":2.84e-6,"MEAN_MOTION_DDOT":0},{"OBJECT_NAME":"STARLINK-30407","OBJECT_ID":"2023-138R","EPOCH":"2025-07-30T17:58:19.717248","MEAN_MOTION":15.27582382,"ECCENTRICITY":5.77e-5,"INCLINATION":43.0003,"RA_OF_ASC_NODE":302.1849,"ARG_OF_PERICENTER":277.6153,"MEAN_ANOMALY":82.4633,"EPHEMERIS_TYPE":0,"CLASSIFICATION_TYPE":"U","NORAD_CAT_ID":57823,"ELEMENT_SET_NO":999,"REV_AT_EPOCH":10602,"BSTAR":9.3653e-5,"MEAN_MOTION_DOT":2.316e-5,"MEAN_MOTION_DDOT":0},{"OBJECT_NAME":"STARLINK-30408","OBJECT_ID":"2023-138S","EPOCH":"2025-07-30T18:11:04.707168","MEAN_MOTION":15.02533884,"ECCENTRICITY":0.0001365,"INCLINATION":43.0041,"RA_OF_ASC_NODE":1.824,"ARG_OF_PERICENTER":269.2889,"MEAN_ANOMALY":90.7797,"EPHEMERIS_TYPE":0,"CLASSIFICATION_TYPE":"U","NORAD_CAT_ID":57824,"ELEMENT_SET_NO":999,"REV_AT_EPOCH":10532,"BSTAR":5.6578e-5,"MEAN_MOTION_DOT":5.61e-6,"MEAN_MOTION_DDOT":0},{"OBJECT_NAME":"STARLINK-30377","OBJECT_ID":"2023-138T","EPOCH":"2025-07-30T17:47:06.282816","MEAN_MOTION":15.02536373,"ECCENTRICITY":0.0001375,"INCLINATION":43.0049,"RA_OF_ASC_NODE":1.7012,"ARG_OF_PERICENTER":266.6479,"MEAN_ANOMALY":93.4206,"EPHEMERIS_TYPE":0,"CLASSIFICATION_TYPE":"U","NORAD_CAT_ID":57825,"ELEMENT_SET_NO":999,"REV_AT_EPOCH":10522,"BSTAR":-2.3422e-5,"MEAN_MOTION_DOT":-5.2e-6,"MEAN_MOTION_DDOT":0},{"OBJECT_NAME":"STARLINK-30422","OBJECT_ID":"2023-138U","EPOCH":"2025-07-30T17:51:53.750304","MEAN_MOTION":15.02537419,"ECCENTRICITY":0.0001443,"INCLINATION":43.004,"RA_OF_ASC_NODE":1.7242,"ARG_OF_PERICENTER":271.8821,"MEAN_ANOMALY":88.1856,"EPHEMERIS_TYPE":0,"CLASSIFICATION_TYPE":"U","NORAD_CAT_ID":57826,"ELEMENT_SET_NO":999,"REV_AT_EPOCH":10532,"BSTAR":6.2031e-5,"MEAN_MOTION_DOT":6.34e-6,"MEAN_MOTION_DDOT":0},{"OBJECT_NAME":"STARLINK-30402","OBJECT_ID":"2023-138V","EPOCH":"2025-07-30T17:58:17.120928","MEAN_MOTION":15.02553071,"ECCENTRICITY":0.0001542,"INCLINATION":43.0049,"RA_OF_ASC_NODE":1.7568,"ARG_OF_PERICENTER":266.7101,"MEAN_ANOMALY":93.3565,"EPHEMERIS_TYPE":0,"CLASSIFICATION_TYPE":"U","NORAD_CAT_ID":57827,"ELEMENT_SET_NO":999,"REV_AT_EPOCH":10532,"BSTAR":-0.00023329,"MEAN_MOTION_DOT":-3.355e-5,"MEAN_MOTION_DDOT":0},{"OBJECT_NAME":"STARLINK-30411","OBJECT_ID":"2023-138W","EPOCH":"2025-07-30T18:01:28.888320","MEAN_MOTION":15.02535979,"ECCENTRICITY":0.0001492,"INCLINATION":43.0049,"RA_OF_ASC_NODE":1.7504,"ARG_OF_PERICENTER":271.0614,"MEAN_ANOMALY":89.0057,"EPHEMERIS_TYPE":0,"CLASSIFICATION_TYPE":"U","NORAD_CAT_ID":57828,"ELEMENT_SET_NO":999,"REV_AT_EPOCH":10526,"BSTAR":8.9107e-5,"MEAN_MOTION_DOT":1.0e-5,"MEAN_MOTION_DDOT":0},{"OBJECT_NAME":"STARLINK-30418","OBJECT_ID":"2023-138X","EPOCH":"2025-07-30T17:42:18.644256","MEAN_MOTION":15.02534223,"ECCENTRICITY":0.0001415,"INCLINATION":43.0056,"RA_OF_ASC_NODE":1.6726,"ARG_OF_PERICENTER":266.9444,"MEAN_ANOMALY":93.1237,"EPHEMERIS_TYPE":0,"CLASSIFICATION_TYPE":"U","NORAD_CAT_ID":57829,"ELEMENT_SET_NO":999,"REV_AT_EPOCH":10516,"BSTAR":-2.3476e-5,"MEAN_MOTION_DOT":-5.21e-6,"MEAN_MOTION_DDOT":0},{"OBJECT_NAME":"STARLINK-30285","OBJECT_ID":"2023-141A","EPOCH":"2025-07-30T09:32:09.301632","MEAN_MOTION":15.30188114,"ECCENTRICITY":0.000117,"INCLINATION":53.1592,"RA_OF_ASC_NODE":236.6722,"ARG_OF_PERICENTER":82.7063,"MEAN_ANOMALY":277.407,"EPHEMERIS_TYPE":0,"CLASSIFICATION_TYPE":"U","NORAD_CAT_ID":57840,"ELEMENT_SET_NO":999,"REV_AT_EPOCH":10629,"BSTAR":4.0943e-6,"MEAN_MOTION_DOT":-2.38e-6,"MEAN_MOTION_DDOT":0},{"OBJECT_NAME":"STARLINK-30410","OBJECT_ID":"2023-141B","EPOCH":"2025-07-30T19:14:39.935040","MEAN_MOTION":15.30188821,"ECCENTRICITY":0.0001132,"INCLINATION":53.1586,"RA_OF_ASC_NODE":234.7458,"ARG_OF_PERICENTER":73.9814,"MEAN_ANOMALY":286.1312,"EPHEMERIS_TYPE":0,"CLASSIFICATION_TYPE":"U","NORAD_CAT_ID":57841,"ELEMENT_SET_NO":999,"REV_AT_EPOCH":10635,"BSTAR":-2.4834e-5,"MEAN_MOTION_DOT":-1.094e-5,"MEAN_MOTION_DDOT":0},{"OBJECT_NAME":"STARLINK-30435","OBJECT_ID":"2023-141C","EPOCH":"2025-07-31T01:35:28.018464","MEAN_MOTION":15.30178579,"ECCENTRICITY":0.0001069,"INCLINATION":53.1589,"RA_OF_ASC_NODE":233.5789,"ARG_OF_PERICENTER":80.8767,"MEAN_ANOMALY":279.2355,"EPHEMERIS_TYPE":0,"CLASSIFICATION_TYPE":"U","NORAD_CAT_ID":57842,"ELEMENT_SET_NO":999,"REV_AT_EPOCH":10639,"BSTAR":-4.3362e-5,"MEAN_MOTION_DOT":-1.642e-5,"MEAN_MOTION_DDOT":0},{"OBJECT_NAME":"STARLINK-30423","OBJECT_ID":"2023-141D","EPOCH":"2025-07-31T04:49:39.465408","MEAN_MOTION":15.30168765,"ECCENTRICITY":0.0001329,"INCLINATION":53.1594,"RA_OF_ASC_NODE":232.9563,"ARG_OF_PERICENTER":83.3685,"MEAN_ANOMALY":276.7467,"EPHEMERIS_TYPE":0,"CLASSIFICATION_TYPE":"U","NORAD_CAT_ID":57843,"ELEMENT_SET_NO":999,"REV_AT_EPOCH":10641,"BSTAR":-6.6111e-5,"MEAN_MOTION_DOT":-2.315e-5,"MEAN_MOTION_DDOT":0},{"OBJECT_NAME":"STARLINK-30292","OBJECT_ID":"2023-141E","EPOCH":"2025-07-31T05:00:06.793344","MEAN_MOTION":15.30215488,"ECCENTRICITY":0.0001144,"INCLINATION":53.1597,"RA_OF_ASC_NODE":232.5054,"ARG_OF_PERICENTER":85.4226,"MEAN_ANOMALY":274.6906,"EPHEMERIS_TYPE":0,"CLASSIFICATION_TYPE":"U","NORAD_CAT_ID":57844,"ELEMENT_SET_NO":999,"REV_AT_EPOCH":10642,"BSTAR":0.0001185,"MEAN_MOTION_DOT":3.154e-5,"MEAN_MOTION_DDOT":0},{"OBJECT_NAME":"STARLINK-30416","OBJECT_ID":"2023-141H","EPOCH":"2025-07-30T19:05:34.885824","MEAN_MOTION":15.30193293,"ECCENTRICITY":0.0001226,"INCLINATION":53.1591,"RA_OF_ASC_NODE":234.8598,"ARG_OF_PERICENTER":84.1924,"MEAN_ANOMALY":275.9216,"EPHEMERIS_TYPE":0,"CLASSIFICATION_TYPE":"U","NORAD_CAT_ID":57847,"ELEMENT_SET_NO":999,"REV_AT_EPOCH":10635,"BSTAR":2.1385e-5,"MEAN_MOTION_DOT":2.74e-6,"MEAN_MOTION_DDOT":0},{"OBJECT_NAME":"STARLINK-30426","OBJECT_ID":"2023-141J","EPOCH":"2025-07-30T08:31:28.589664","MEAN_MOTION":15.30195471,"ECCENTRICITY":0.0001189,"INCLINATION":53.1588,"RA_OF_ASC_NODE":236.8829,"ARG_OF_PERICENTER":78.7961,"MEAN_ANOMALY":281.3173,"EPHEMERIS_TYPE":0,"CLASSIFICATION_TYPE":"U","NORAD_CAT_ID":57848,"ELEMENT_SET_NO":999,"REV_AT_EPOCH":10628,"BSTAR":3.7197e-5,"MEAN_MOTION_DOT":7.43e-6,"MEAN_MOTION_DDOT":0},{"OBJECT_NAME":"STARLINK-30430","OBJECT_ID":"2023-141K","EPOCH":"2025-07-30T19:01:01.988832","MEAN_MOTION":15.3018963,"ECCENTRICITY":0.000126,"INCLINATION":53.1593,"RA_OF_ASC_NODE":234.8809,"ARG_OF_PERICENTER":85.4847,"MEAN_ANOMALY":274.6298,"EPHEMERIS_TYPE":0,"CLASSIFICATION_TYPE":"U","NORAD_CAT_ID":57849,"ELEMENT_SET_NO":999,"REV_AT_EPOCH":10635,"BSTAR":9.0625e-6,"MEAN_MOTION_DOT":-9.1e-7,"MEAN_MOTION_DDOT":0},{"OBJECT_NAME":"STARLINK-30425","OBJECT_ID":"2023-141L","EPOCH":"2025-07-30T08:36:02.166624","MEAN_MOTION":15.3019406,"ECCENTRICITY":0.0001132,"INCLINATION":53.1587,"RA_OF_ASC_NODE":236.9083,"ARG_OF_PERICENTER":75.7246,"MEAN_ANOMALY":284.3881,"EPHEMERIS_TYPE":0,"CLASSIFICATION_TYPE":"U","NORAD_CAT_ID":57850,"ELEMENT_SET_NO":999,"REV_AT_EPOCH":10628,"BSTAR":1.3158e-5,"MEAN_MOTION_DOT":3.1e-7,"MEAN_MOTION_DDOT":0}]
