STARLINK-30415          
1 57821U 23138P   25211.89175793  .00000284  00000+0  36129-4 0  9998
2 57821  43.0048   1.1096 0001307 253.7885 106.2813 15.02537133105355
STARLINK-30407          
1 57823U 23138R   25211.74883932  .00002316  00000+0  93653-4 0  9998
2 57823  43.0003 302.1849 0000577 277.6153  82.4633 15.27582382106022
STARLINK-30408          
1 57824U 23138S   25211.75769337  .00000561  00000+0  56578-4 0  9997
2 57824  43.0041   1.8240 0001365 269.2889  90.7797 15.02533884105323
STARLINK-30377          
1 57825U 23138T   25211.74104494 -.00000520  00000+0 -23422-4 0  9993
2 57825  43.0049   1.7012 0001375 266.6479  93.4206 15.02536373105225
STARLINK-30422          
1 57826U 23138U   25211.74437211  .00000634  00000+0  62031-4 0  9993
2 57826  43.0040   1.7242 0001443 271.8821  88.1856 15.02537419105322
STARLINK-30402          
1 57827U 23138V   25211.74880927 -.00003355  00000+0 -23329-3 0  9991
2 57827  43.0049   1.7568 0001542 266.7101  93.3565 15.02553071105324
STARLINK-30411          
1 57828U 23138W   25211.75102880  .00001000  00000+0  89107-4 0  9998
2 57828  43.0049   1.7504 0001492 271.0614  89.0057 15.02535979105265
STARLINK-30418          
1 57829U 23138X   25211.73771579 -.00000521  00000+0 -23476-4 0  9990
2 57829  43.0056   1.6726 0001415 266.9444  93.1237 15.02534223105164
STARLINK-30285          
1 57840U 23141A   25211.39732988 -.00000238  00000+0  40943-5 0  9993
2 57840  53.1592 236.6722 0001170  82.7063 277.4070 15.30188114106291
STARLINK-30410          
1 57841U 23141B   25211.80185110 -.00001094  00000+0 -24834-4 0  9991
2 57841  53.1586 234.7458 0001132  73.9814 286.1312 15.30188821106352
STARLINK-30435          
1 57842U 23141C   25212.06629651 -.00001642  00000+0 -43362-4 0  9990
2 57842  53.1589 233.5789 0001069  80.8767 279.2355 15.30178579106396
STARLINK-30423          
1 57843U 23141D   25212.20115122 -.00002315  00000+0 -66111-4 0  9995
2 57843  53.1594 232.9563 0001329  83.3685 276.7467 15.30168765106417
STARLINK-30292          
1 57844U 23141E   25212.20841196  .00003154  00000+0  11850-3 0  9992
2 57844  53.1597 232.5054 0001144  85.4226 274.6906 15.30215488106422
STARLINK-30416          
1 57847U 23141H   25211.79554266  .00000274  00000+0  21385-4 0  9992
2 57847  53.1591 234.8598 0001226  84.1924 275.9216 15.30193293106358
STARLINK-30426          
1 57848U 23141J   25211.35519201  .00000743  00000+0  37197-4 0  9994
2 57848  53.1588 236.8829 0001189  78.7961 281.3173 15.30195471106287
STARLINK-30430          
1 57849U 23141K   25211.79238413 -.00000091  00000+0  90625-5 0  9999
2 57849  53.1593 234.8809 0001260  85.4847 274.6298 15.30189630106359
STARLINK-30425          
1 57850U 23141L   25211.35835841  .00000031  00000+0  13158-4 0  9999
2 57850  53.1587 236.9083 0001132  75.7246 284.3881 15.30194060106285
